GOES 16                 
1 41866U 16071A   26197.60564999 -.00000102  00000+0  00000+0 0  9995
2 41866   0.4077  85.4567 0000548  90.3097 232.0048  1.00271098 35392
TIANLIAN 1-04           
1 41869U 16072A   26197.80385905  .00000019  00000+0  00000+0 0  9995
2 41869   0.9422  82.7131 0044153  90.6748 227.4015  1.00271425 35595
WGS F8 (USA 272)        
1 41879U 16075A   26197.58864470 -.00000212  00000+0  00000+0 0  9999
2 41879   0.0191  48.9691 0000510 214.1190  33.0634  1.00274351 35115
FENGYUN 4A              
1 41882U 16077A   26197.86469840 -.00000369  00000+0  00000+0 0  9991
2 41882   2.3960  79.9395 0008464 159.7018 130.0629  1.00267242 35227
ECHOSTAR 19             
1 41893U 16079A   26197.82084580 -.00000149  00000+0  00000+0 0  9991
2 41893   0.0179  53.6857 0001372  68.4581  10.9043  1.00271662 35003
JCSAT-110A (JCSAT-15)   
1 41903U 16082A   26197.75204299 -.00000361  00000+0  00000+0 0  9996
2 41903   0.0190  44.4606 0000500  85.2528 185.6646  1.00270562 35050
STAR ONE D1             
1 41904U 16082B   26197.82344580 -.00000221  00000+0  00000+0 0  9998
2 41904   0.0095 315.8785 0002253 160.4014  30.8181  1.00270790 35071
TJS-2                   
1 41911U 17001A   26197.85334500 -.00000017  00000+0  00000+0 0  9995
2 41911   0.9079  84.9257 0000809 103.6570 119.8283  1.00271035 35017
SBIRS GEO-4 (USA 273)   
1 41937U 17004A   26197.82336531  .00000116  00000+0  00000+0 0  9998
2 41937   2.2995  44.0291 0002631  66.9569 141.7818  1.00281130 34896
HISPASAT 36W-1          
1 41942U 17006A   26197.40537234  .00000000  00000+0  00000+0 0  9995
2 41942   0.0104  68.2055 0001197  46.6774 289.3003  1.00268264 34534
TELKOM 3S               
1 41944U 17007A   26197.79224566  .00000000  00000+0  00000+0 0  9991
2 41944   0.0129  58.6335 0002131  54.6191 224.5785  1.00266568 34430
INTELSAT 32E (IS-32E)   
1 41945U 17007B   26197.78794999  .00000000  00000+0  00000+0 0  9993
2 41945   0.0225  58.7860 0000433 299.9397 176.3763  1.00269913 34524
ECHOSTAR 23             
1 42070U 17014A   26197.60460998 -.00000068  00000+0  00000+0 0  9996
2 42070   0.0179  43.8574 0002162  68.4768 289.8540  1.00270268 34215
WGS F9 (USA 275)        
1 42075U 17016A   26197.84003088  .00000000  00000+0  00000+0 0  9997
2 42075   0.0230  51.8283 0000469 199.6538 333.6347  1.00270098 34195
SES-10                  
1 42432U 17017A   26197.82695617 -.00000283  00000+0  00000+0 0  9992
2 42432   0.0185  50.0191 0002569  69.1111  46.3217  1.00272600 34051
CHINASAT 16 (SJ-13)     
1 42662U 17018A   26197.07791604 -.00000362  00000+0  00000+0 0  9996
2 42662   0.0882  88.3030 0005044 136.5277 207.6336  1.00266869 34031
KOREASAT 7              
1 42691U 17023A   26197.79189898 -.00000372  00000+0  00000+0 0  9990
2 42691   0.0221 344.0011 0000759 139.4225 212.1531  1.00268930 33661
SGDC                    
1 42692U 17023B   26197.39066458 -.00000260  00000+0  00000+0 0  9999
2 42692   0.0209 313.6175 0002277 167.9363 238.4478  1.00270104 33709
GSAT-9                  
1 42695U 17024A   26197.78817229 -.00000295  00000+0  00000+0 0  9994
2 42695   0.0895  91.0224 0002324  35.6793 188.8876  1.00266935 33590
INMARSAT 5-F4           
1 42698U 17025A   26197.85143832  .00000065  00000+0  00000+0 0  9992
2 42698   0.0188  46.2027 0000456 146.1097 105.3817  1.00271611 33574
SES-15                  
1 42709U 17026A   26197.60079662  .00000049  00000+0  00000+0 0  9990
2 42709   0.0270 328.2107 0000340 135.1509 278.1930  1.00268575  7727
QZS-2 (MICHIBIKI-2)     
1 42738U 17028A   26197.47358897 -.00000143  00000+0  00000+0 0  9995
2 42738  39.3848 242.7220 0757359 269.6144  94.9037  1.00276421  7921
VIASAT-2                
1 42740U 17029A   26197.75497185 -.00000276  00000+0  00000+0 0  9991
2 42740   0.0177 312.8835 0000519 239.5487 304.0400  1.00270103 33503
EUTELSAT 172B           
1 42741U 17029B   26197.80299237 -.00000017  00000+0  00000+0 0  9999
2 42741   0.0257 123.6319 0000095 175.8400  96.2189  1.00270287 34030
GSAT-19                 
1 42747U 17031A   26197.81017090  .00000115  00000+0  00000+0 0  9992
2 42747   0.0430  88.9402 0006223   2.1159 183.1042  1.00269830 33447
ECHOSTAR 21             
1 42749U 17032A   26197.82892022  .00000056  00000+0  00000+0 0  9996
2 42749   1.7703 357.6354 0002205 107.0559 138.6277  1.00270030 33390
BULGARIASAT-1           
1 42801U 17038A   26197.82892022  .00000000  00000+0  00000+0 0  9990
2 42801   0.0094  16.8940 0003049 104.6017 113.4600  1.00271634 33143
HELLAS-SAT 3            
1 42814U 17040A   26197.81572586  .00000142  00000+0  00000+0 0  9993
2 42814   0.0536  52.1800 0003222  25.4314 189.6763  1.00272260 33106
GSAT-17                 
1 42815U 17040B   26197.28846309 -.00000268  00000+0  00000+0 0  9992
2 42815   0.0751  88.4664 0002221 166.4892 236.4976  1.00270241 33082
INTELSAT 35E (IS-35E)   
1 42818U 17041A   26197.85114068 -.00000248  00000+0  00000+0 0  9997
2 42818   0.0186  45.6193 0001858  72.1335  88.8239  1.00272989 33115
COSMOS 2520             
1 42907U 17046A   26197.81572586  .00000126  00000+0  00000+0 0  9994
2 42907   0.0303 107.9729 0000874 345.2649 180.0417  1.00277510 32691
TDRS 13                 
1 42915U 17047A   26197.83947534 -.00000110  00000+0  00000+0 0  9999
2 42915   3.4599   3.4624 0014809 111.3898 110.6199  1.00271811 32648
