OBJECT_NAME,OBJECT_ID,EPOCH,MEAN_MOTION,ECCENTRICITY,INCLINATION,RA_OF_ASC_NODE,ARG_OF_PERICENTER,MEAN_ANOMALY,EPHEMERIS_TYPE,CLASSIFICATION_TYPE,NORAD_CAT_ID,ELEMENT_SET_NO,REV_AT_EPOCH,BSTAR,MEAN_MOTION_DOT,MEAN_MOTION_DDOT
GOES 16,2016-071A,2026-07-16T14:32:08.159136,1.00271098,.0000548,0.4077,85.4567,90.3097,232.0048,0,U,41866,999,3539,0,-.102E-5,0
TIANLIAN 1-04,2016-072A,2026-07-16T19:17:33.421920,1.00271425,.0044153,0.9422,82.7131,90.6748,227.4015,0,U,41869,999,3559,0,.19E-6,0
WGS F8 (USA 272),2016-075A,2026-07-16T14:07:38.902080,1.00274351,.000051,0.0191,48.9691,214.1190,33.0634,0,U,41879,999,3511,0,-.212E-5,0
FENGYUN 4A,2016-077A,2026-07-16T20:45:09.941760,1.00267242,.0008464,2.3960,79.9395,159.7018,130.0629,0,U,41882,999,3522,0,-.369E-5,0
ECHOSTAR 19,2016-079A,2026-07-16T19:42:01.077120,1.00271662,.0001372,0.0179,53.6857,68.4581,10.9043,0,U,41893,999,3500,0,-.149E-5,0
JCSAT-110A (JCSAT-15),2016-082A,2026-07-16T18:02:56.514336,1.00270562,.00005,0.0190,44.4606,85.2528,185.6646,0,U,41903,999,3505,0,-.361E-5,0
STAR ONE D1,2016-082B,2026-07-16T19:45:45.717120,1.00270790,.0002253,0.0095,315.8785,160.4014,30.8181,0,U,41904,999,3507,0,-.221E-5,0
TJS-2,2017-001A,2026-07-16T20:28:49.008000,1.00271035,.0000809,0.9079,84.9257,103.6570,119.8283,0,U,41911,999,3501,0,-.17E-6,0
SBIRS GEO-4 (USA 273),2017-004A,2026-07-16T19:45:38.762784,1.00281130,.0002631,2.2995,44.0291,66.9569,141.7818,0,U,41937,999,3489,0,.116E-5,0
HISPASAT 36W-1,2017-006A,2026-07-16T09:43:44.170176,1.00268264,.0001197,0.0104,68.2055,46.6774,289.3003,0,U,41942,999,3453,0,0,0
TELKOM 3S,2017-007A,2026-07-16T19:00:50.025024,1.00266568,.0002131,0.0129,58.6335,54.6191,224.5785,0,U,41944,999,3443,0,0,0
INTELSAT 32E (IS-32E),2017-007B,2026-07-16T18:54:38.879136,1.00269913,.0000433,0.0225,58.7860,299.9397,176.3763,0,U,41945,999,3452,0,0,0
ECHOSTAR 23,2017-014A,2026-07-16T14:30:38.302272,1.00270268,.0002162,0.0179,43.8574,68.4768,289.8540,0,U,42070,999,3421,0,-.68E-6,0
WGS F9 (USA 275),2017-016A,2026-07-16T20:09:38.668032,1.00270098,.0000469,0.0230,51.8283,199.6538,333.6347,0,U,42075,999,3419,0,0,0
SES-10,2017-017A,2026-07-16T19:50:49.013088,1.00272600,.0002569,0.0185,50.0191,69.1111,46.3217,0,U,42432,999,3405,0,-.283E-5,0
CHINASAT 16 (SJ-13),2017-018A,2026-07-16T01:52:11.945856,1.00266869,.00050444,0.0882,88.3030,136.5277,207.6336,0,U,42662,999,3403,0,-.362E-5,0
KOREASAT 7,2017-023A,2026-07-16T19:00:20.071872,1.00268930,.0000759,0.0221,344.0011,139.4225,212.1531,0,U,42691,999,3366,0,-.372E-5,0
SGDC,2017-023B,2026-07-16T09:22:33.419712,1.00270104,.0002277,0.0209,313.6175,167.9363,238.4478,0,U,42692,999,3370,0,-.26E-5,0
GSAT-9,2017-024A,2026-07-16T18:54:58.085856,1.00266935,.0002324,0.0895,91.0224,35.6793,188.8876,0,U,42695,999,3359,0,-.295E-5,0
INMARSAT 5-F4,2017-025A,2026-07-16T20:26:04.270848,1.00271611,.0000456,0.0188,46.2027,146.1097,105.3817,0,U,42698,999,3357,0,.65E-6,0
SES-15,2017-026A,2026-07-16T14:25:08.827968,1.00268575,.000034,0.0270,328.2107,135.1509,278.1930,0,U,42709,999,772,0,.49E-6,0
QZS-2 (MICHIBIKI-2),2017-028A,2026-07-16T11:21:58.087008,1.00276421,.0757359,39.3848,242.7220,269.6144,94.9037,0,U,42738,999,792,0,-.143E-5,0
VIASAT-2,2017-029A,2026-07-16T18:07:09.567840,1.00270103,.0000519,0.0177,312.8835,239.5487,304.0400,0,U,42740,999,3350,0,-.276E-5,0
EUTELSAT 172B,2017-029B,2026-07-16T19:16:18.540768,1.00270287,.0000095,0.0257,123.6319,175.8400,96.2189,0,U,42741,999,3403,0,-.17E-6,0
GSAT-19,2017-031A,2026-07-16T19:26:38.765760,1.00269830,.0006223,0.0430,88.9402,2.1159,183.1042,0,U,42747,999,3344,0,.115E-5,0
ECHOSTAR 21,2017-032A,2026-07-16T19:53:38.707008,1.00270030,.0002205,1.7703,357.6354,107.0559,138.6277,0,U,42749,999,3339,0,.56E-6,0
BULGARIASAT-1,2017-038A,2026-07-16T19:53:38.707008,1.00271634,.0003049,0.0094,16.8940,104.6017,113.4600,0,U,42801,999,3314,0,0,0
HELLAS-SAT 3,2017-040A,2026-07-16T19:34:38.714304,1.00272260,.0003222,0.0536,52.1800,25.4314,189.6763,0,U,42814,999,3310,0,.142E-5,0
GSAT-17,2017-040B,2026-07-16T06:55:23.210976,1.00270241,.0002221,0.0751,88.4664,166.4892,236.4976,0,U,42815,999,3308,0,-.268E-5,0
INTELSAT 35E (IS-35E),2017-041A,2026-07-16T20:25:38.554752,1.00272989,.0001858,0.0186,45.6193,72.1335,88.8239,0,U,42818,999,3311,0,-.248E-5,0
COSMOS 2520,2017-046A,2026-07-16T19:34:38.714304,1.00277510,.0000874,0.0303,107.9729,345.2649,180.0417,0,U,42907,999,3269,0,.126E-5,0
TDRS 13,2017-047A,2026-07-16T20:08:50.669376,1.00271811,.0014809,3.4599,3.4624,111.3898,110.6199,0,U,42915,999,3264,0,-.11E-5,0
